STARLINK-1007           
1 44713U 19074A   24173.07959204  .00000358  00000+0  42917-4 0  9995
2 44713  53.0548 119.5765 0001363  92.0014 268.1131 15.06390238254470
STARLINK-1008           
1 44714U 19074B   24172.99207801  .00000399  00000+0  45670-4 0  9999
2 44714  53.0553 119.9677 0001430  93.4304 266.6848 15.06387372254467
STARLINK-1009           
1 44715U 19074C   24173.11371179 -.00000638  00000+0 -23966-4 0  9997
2 44715  53.0551 119.4242 0001578  98.1824 261.9344 15.06391298254473
STARLINK-1010           
1 44716U 19074D   24172.99944444  .00000827  00000+0  74455-4 0  9991
2 44716  53.0544 119.9352 0001422  94.4046 265.7106 15.06392204254449
STARLINK-1011           
1 44717U 19074E   24172.33413512  .00001692  00000+0  13244-3 0  9996
2 44717  53.0538 142.9252 0001212  94.4859 265.6268 15.06398610254082
STARLINK-1012           
1 44718U 19074F   24173.16900304  .00001084  00000+0  91685-4 0  9990
2 44718  53.0552 119.1772 0001368  91.9864 268.1282 15.06390663254480
STARLINK-1013           
1 44719U 19074G   24173.17637715  .00000962  00000+0  83478-4 0  9990
2 44719  53.0554 119.1473 0001458  93.8717 266.2439 15.06390159254482
STARLINK-1014           
1 44720U 19074H   24172.82054339  .00010887  00000+0  67633-3 0  9999
2 44720  53.0543 118.9118 0002820  42.1969 317.9238 15.10156279254293
STARLINK-1015           
1 44721U 19074J   24172.25738078  .00005518  00000+0  39677-3 0  9998
2 44721  53.0525 123.2939 0001560  84.9459 275.1708 15.05656690254172
STARLINK-1017           
1 44723U 19074L   24173.00313122  .00000899  00000+0  79277-4 0  9991
2 44723  53.0544 119.9177 0001424  93.4579 266.6573 15.06393180254468
STARLINK-1019           
1 44724U 19074M   24173.16531900  .00000803  00000+0  72802-4 0  9997
2 44724  53.0540 119.1927 0001440  87.7032 272.4122 15.06391032254489
STARLINK-1020           
1 44725U 19074N   24172.30832973  .00000213  00000+0  33208-4 0  9999
2 44725  53.0543 143.0434 0001411  91.6528 268.4623 15.06396651253903
STARLINK-1021           
1 44726U 19074P   24172.96258832  .00000094  00000+0  25192-4 0  9998
2 44726  53.0556 120.1014 0001571  78.9077 281.2089 15.06392547254452
STARLINK-1027           
1 44732U 19074V   24173.15978069  .00000191  00000+0  31701-4 0  9999
2 44732  53.0546 139.2262 0001382  96.2266 263.8881 15.06391132254205
STARLINK-1028           
1 44733U 19074W   24172.82619936 -.00000158  00000+0  82790-5 0  9997
2 44733  53.0547 120.7186 0001311  87.8195 272.2944 15.06392013254265
STARLINK-1029           
1 44734U 19074X   24172.84095014 -.00000044  00000+0  15976-4 0  9990
2 44734  53.0549  40.6481 0001865  96.9131 263.2070 15.06400145255369
STARLINK-1030           
1 44735U 19074Y   24172.30464050 -.00000012  00000+0  18063-4 0  9997
2 44735  53.0543 143.0558 0001403  89.4574 270.6576 15.06397758253909
STARLINK-1031           
1 44736U 19074Z   24173.18189205  .00000086  00000+0  24689-4 0  9992
2 44736  53.0545 139.1214 0001388  93.6185 266.4963 15.06389667254212
STARLINK-1032           
1 44737U 19074AA  24173.19295377 -.00000559  00000+0 -18612-4 0  9998
2 44737  53.0545 139.0693 0001455  93.5295 266.5861 15.06394133254211
STARLINK-1035           
1 44740U 19074AD  24173.12292286  .00000278  00000+0  37581-4 0  9993
2 44740  53.0543 139.3908 0001475  92.9850 267.1308 15.06393417254203
STARLINK-1036           
1 44741U 19074AE  24172.33781281  .00000565  00000+0  56816-4 0  9995
2 44741  53.0539 142.9068 0001342  92.6146 267.4997 15.06397957253911
STARLINK-1038           
1 44743U 19074AG  24172.98470146  .00001041  00000+0  88775-4 0  9992
2 44743  53.0536 160.0033 0001312  89.0735 271.0404 15.06390769253901
STARLINK-1039           
1 44744U 19074AH  24172.99575618 -.00000064  00000+0  14582-4 0  9994
2 44744  53.0545 159.9589 0001339  86.0440 274.0702 15.06393750253901
STARLINK-1041           
1 44746U 19074AK  24173.18315533  .00005647  00000+0  51438-4 0  9998
2 44746  53.0541 142.0685 0001329  71.7332 288.3829 15.69707730254173
STARLINK-1042           
1 44747U 19074AL  24173.15735329  .00013309  00000+0  65995-3 0  9991
2 44747  53.0539 153.1198 0004959  44.0231 316.1157 15.18036839254023
STARLINK-1043           
1 44748U 19074AM  24172.37651953 -.00000145  00000+0  91230-5 0  9993
2 44748  53.0537 162.7356 0001085  84.3982 275.7131 15.06394116253642
STARLINK-1046           
1 44751U 19074AQ  24173.18742135  .00000245  00000+0  35334-4 0  9992
2 44751  53.0543 159.0955 0001299  90.0526 270.0612 15.06392056253937
STARLINK-1047           
1 44752U 19074AR  24172.87598049  .00001290  00000+0  10553-3 0  9997
2 44752  53.0546 140.4912 0001330  91.5324 268.5817 15.06381491253992
STARLINK-1048           
1 44753U 19074AS  24173.14688413  .00000699  00000+0  65798-4 0  9998
2 44753  53.0547 119.2745 0001463  88.6334 271.4822 15.06392691254485
STARLINK-1052           
1 44757U 19074AW  24173.12436660  .00010244  00000+0  41833-3 0  9995
2 44757  53.0412 120.9052 0002968 340.3694  19.7188 15.24976879254460
STARLINK-1053           
1 44758U 19074AX  24172.70457775 -.00000242  00000+0  26706-5 0  9991
2 44758  53.0538 161.3478 0001422  97.8316 262.2835 15.06402080253696
STARLINK-1054           
1 44759U 19074AY  24173.15056849  .00000345  00000+0  42068-4 0  9990
2 44759  53.0542 159.2601 0001331  86.6126 273.5015 15.06387869253939
STARLINK-1055           
1 44760U 19074AZ  24172.22969729  .00012949  00000+0  41504-3 0  9995
2 44760  53.0139 111.7738 0006323 355.4501   4.6440 15.32701362254525
STARLINK-1056           
1 44761U 19074BA  24172.68246119 -.00000198  00000+0  55914-5 0  9993
2 44761  53.0539 161.3605 0001482  92.4996 267.6163 15.06387583253697
STARLINK-1057           
1 44762U 19074BB  24172.35256555  .00000662  00000+0  63359-4 0  9999
2 44762  53.0545 142.8420 0001427  87.7056 272.4096 15.06393102253915
STARLINK-1058           
1 44763U 19074BC  24172.67144122  .00000596  00000+0  58883-4 0  9993
2 44763  53.0538 161.7561 0001352  92.6928 267.4216 15.06390891253688
STARLINK-1059           
1 44764U 19074BD  24172.94101694  .00013138  00000+0  33278-3 0  9997
2 44764  53.0779  67.0447 0005460  68.8070 291.3517 15.40077113255065
STARLINK-1060           
1 44765U 19074BE  24173.16346902  .00000111  00000+0  26346-4 0  9992
2 44765  53.0539 139.2007 0001322  88.8582 271.2558 15.06390910254209
STARLINK-1061           
1 44766U 19074BF  24172.69720168  .00000797  00000+0  72428-4 0  9992
2 44766  53.0544 161.2985 0001312  93.4275 266.6864 15.06386378253699
STARLINK-1062           
1 44767U 19074BG  24172.94423002  .00001579  00000+0  12488-3 0  9996
2 44767  53.0530 160.7681 0001358  94.5065 265.6079 15.06394076253726
STARLINK-1063           
1 44768U 19074BH  24172.38021566  .00000226  00000+0  34070-4 0  9994
2 44768  53.0534 162.7178 0001360  88.2938 271.8207 15.06392718253651
STARLINK-1067           
1 44771U 19074BL  24172.36915635 -.00000508  00000+0 -15229-4 0  9995
2 44771  53.0540 162.7698 0001344  92.9402 267.1741 15.06388853253644
STARLINK-1068           
1 44772U 19074BM  24172.35993935 -.00000539  00000+0 -17301-4 0  9991
2 44772  53.0542 142.8083 0001381  92.7235 267.3912 15.06389770253918
STARLINK-1073           
1 44914U 20001A   24172.57555529  .00011529  00000+0  79123-3 0  9996
2 44914  53.0574 281.8434 0001535  92.4213 267.6951 15.06416418245321
STARLINK-1084           
1 44915U 20001B   24172.53871474  .00012543  00000+0  85966-3 0  9992
2 44915  53.0550 282.0051 0001225  77.9556 282.1570 15.06391041245321
STARLINK-1098           
1 44917U 20001D   24172.60873472  .00007106  00000+0  49542-3 0  9991
2 44917  53.0543 281.6894 0001308  85.1659 274.9479 15.06402513245337
STARLINK-1099           
1 44918U 20001E   24172.81194518  .00077687  00000+0  52767-3 0  9996
2 44918  53.0431 200.5145 0004653  13.6311 346.4832 15.74270965247238
STARLINK-1102           
1 44920U 20001G   24172.85492861  .00012206  00000+0  36260-3 0  9991
2 44920  53.0504 218.5083 0004587   2.3852 357.7170 15.35187994246250
STARLINK-1103           
1 44921U 20001H   24172.51931726  .00007424  00000+0  51661-3 0  9991
2 44921  53.0567 282.0516 0001490  91.4037 268.7123 15.06410645245293
STARLINK-1104           
1 44922U 20001J   24173.02155893  .00001152  00000+0  96247-4 0  9994
2 44922  53.0563 279.8367 0001250  90.9663 269.1470 15.06395159245394
STARLINK-1106           
1 44923U 20001K   24172.46419528  .00009497  00000+0  34315-3 0  9997
2 44923  53.0158 236.5324 0003278 231.7569 128.3135 15.29147540245950
STARLINK-1111           
1 44924U 20001L   24172.60514520  .00176900  00000+0  68825-3 0  9999
2 44924  53.0479 244.7139 0003323  15.7969 133.7671 15.86106491245843
STARLINK-1112           
1 44925U 20001M   24172.52026832  .00004931  00000+0  34962-3 0  9994
2 44925  53.0563 282.0904 0001292  86.6530 273.4607 15.06405324245319
STARLINK-1113           
1 44926U 20001N   24173.19990158  .00043288  00000+0  53982-3 0  9991
2 44926  53.0515 249.6071 0003426 291.8506  68.2142 15.59475939246520
STARLINK-1114           
1 44927U 20001P   24172.99575609  .00004513  00000+0  32167-3 0  9999
2 44927  53.0549 279.9502 0001477  78.3518 281.7637 15.06399551245390
STARLINK-1123           
1 44930U 20001S   24173.01050319  .00007494  00000+0  52135-3 0  9991
2 44930  53.0550 279.8880 0001425  80.9522 279.1628 15.06405150245395
STARLINK-1128           
1 44931U 20001T   24173.25001157  .00131979  00000+0  13664-2 0  9993
2 44931  53.0334 218.0098 0009932 339.9149 194.1964 15.63751983247027
STARLINK-1130 (DARKSAT) 
1 44932U 20001U   24172.99943469  .00003528  00000+0  25558-3 0  9999
2 44932  53.0561 279.9325 0001382  70.5417 289.5721 15.06404166246626
STARLINK-1144           
1 44933U 20001V   24173.02524146  .00001715  00000+0  13397-3 0  9996
2 44933  53.0538 279.8246 0001191  89.4002 270.7123 15.06398429246687
